SL-16 R/B               
1 22566U 93016B   25344.51412915 -.00000131  00000+0 -43065-4 0  9994
2 22566  71.0086  42.4785 0007839 101.7988 258.4015 14.15287115689559
COSMOS 2242             
1 22626U 93024A   25344.49552329  .00003350  00000+0  29527-3 0  9991
2 22626  82.5191 351.9897 0014860 242.5001 117.4711 14.96091004767052
SL-16 R/B               
1 22803U 93059B   25344.54408296 -.00000018  00000+0  14733-4 0  9998
2 22803  70.9895 199.1165 0017882 338.7407  21.2972 14.17213665666901
ARIANE 40 R/B           
1 22830U 93061H   25344.45342658  .00000453  00000+0  18182-3 0  9993
2 22830  98.5079  50.0250 0010739 182.7095 177.4033 14.32799186681324
COSMOS 2278             
1 23087U 94023A   25344.48487185 -.00000147  00000+0 -52233-4 0  9993
2 23087  71.0544   1.7288 0008434 183.3840 176.7227 14.14350875632196
SL-16 R/B               
1 23088U 94023B   25344.50135561  .00000139  00000+0  96492-4 0  9999
2 23088  71.0010 258.1861 0001244  35.2030 324.9175 14.15002492633479
SL-16 R/B               
1 23343U 94074B   25344.53028429  .00000807  00000+0  11510-3 0  9995
2 23343  97.7204  13.9226 0007405 142.0134  25.3406 14.79285799674064
SL-16 R/B               
1 23405U 94077B   25344.30574902  .00000282  00000+0  16872-3 0  9997
2 23405  70.9811 180.5343 0004612 285.9502  74.1112 14.15548154603586
ARIANE 40+ R/B          
1 23561U 95021B   25344.67107832  .00000532  00000+0  18391-3 0  9990
2 23561  98.4653  52.2848 0007567  55.4934 106.5246 14.39693164606437
SL-16 R/B               
1 23705U 95058B   25344.44965347  .00000162  00000+0  10727-3 0  9992
2 23705  71.0226   7.6126 0014959 258.2043 101.7402 14.15483341555229
SL-16 R/B               
1 24298U 96051B   25344.36395504  .00000030  00000+0  43170-4 0  9990
2 24298  70.7595   4.3130 0019357 264.2296  95.6617 14.12396288509032
ORBVIEW 2 (SEASTAR)     
1 24883U 97037A   25344.40589299  .00000547  00000+0  20680-3 0  9999
2 24883  98.8456 141.4216 0001761 349.6577  10.4571 14.35414500495667
