CCSDS_OMM_VERS = 2.0
CREATION_DATE  = 
ORIGINATOR     = 

OBJECT_NAME    = SL-16 R/B
OBJECT_ID      = 1993-016B
CENTER_NAME    = EARTH
REF_FRAME      = TEME
TIME_SYSTEM    = UTC
MEAN_ELEMENT_THEORY = SGP/SGP4

EPOCH          = 2025-12-10T12:20:20.758560
MEAN_MOTION    = 14.15287115
ECCENTRICITY   = .0007839
INCLINATION    = 71.0086
RA_OF_ASC_NODE = 42.4785
ARG_OF_PERICENTER = 101.7988
MEAN_ANOMALY   = 258.4015

EPHEMERIS_TYPE = 0
CLASSIFICATION_TYPE = U
NORAD_CAT_ID   = 22566
ELEMENT_SET_NO = 999
REV_AT_EPOCH   = 68955
BSTAR          = -.4306495E-4
MEAN_MOTION_DOT = -.131E-5
MEAN_MOTION_DDOT = 0

CCSDS_OMM_VERS = 2.0
CREATION_DATE  = 
ORIGINATOR     = 

OBJECT_NAME    = COSMOS 2242
OBJECT_ID      = 1993-024A
CENTER_NAME    = EARTH
REF_FRAME      = TEME
TIME_SYSTEM    = UTC
MEAN_ELEMENT_THEORY = SGP/SGP4

EPOCH          = 2025-12-10T11:53:33.212256
MEAN_MOTION    = 14.96091004
ECCENTRICITY   = .00148609
INCLINATION    = 82.5191
RA_OF_ASC_NODE = 351.9897
ARG_OF_PERICENTER = 242.5001
MEAN_ANOMALY   = 117.4711

EPHEMERIS_TYPE = 0
CLASSIFICATION_TYPE = U
NORAD_CAT_ID   = 22626
ELEMENT_SET_NO = 999
REV_AT_EPOCH   = 76705
BSTAR          = .29526741E-3
MEAN_MOTION_DOT = .335E-4
MEAN_MOTION_DDOT = 0

CCSDS_OMM_VERS = 2.0
CREATION_DATE  = 
ORIGINATOR     = 

OBJECT_NAME    = SL-16 R/B
OBJECT_ID      = 1993-059B
CENTER_NAME    = EARTH
REF_FRAME      = TEME
TIME_SYSTEM    = UTC
MEAN_ELEMENT_THEORY = SGP/SGP4

EPOCH          = 2025-12-10T13:03:28.767744
MEAN_MOTION    = 14.17213665
ECCENTRICITY   = .00178828
INCLINATION    = 70.9895
RA_OF_ASC_NODE = 199.1165
ARG_OF_PERICENTER = 338.7407
MEAN_ANOMALY   = 21.2972

EPHEMERIS_TYPE = 0
CLASSIFICATION_TYPE = U
NORAD_CAT_ID   = 22803
ELEMENT_SET_NO = 999
REV_AT_EPOCH   = 66690
BSTAR          = .14733462E-4
MEAN_MOTION_DOT = -.18E-6
MEAN_MOTION_DDOT = 0

CCSDS_OMM_VERS = 2.0
CREATION_DATE  = 
ORIGINATOR     = 

OBJECT_NAME    = ARIANE 40 R/B
OBJECT_ID      = 1993-061H
CENTER_NAME    = EARTH
REF_FRAME      = TEME
TIME_SYSTEM    = UTC
MEAN_ELEMENT_THEORY = SGP/SGP4

EPOCH          = 2025-12-10T10:52:56.056512
MEAN_MOTION    = 14.32799186
ECCENTRICITY   = .00107393
INCLINATION    = 98.5079
RA_OF_ASC_NODE = 50.0250
ARG_OF_PERICENTER = 182.7095
MEAN_ANOMALY   = 177.4033

EPHEMERIS_TYPE = 0
CLASSIFICATION_TYPE = U
NORAD_CAT_ID   = 22830
ELEMENT_SET_NO = 999
REV_AT_EPOCH   = 68132
BSTAR          = .18182339E-3
MEAN_MOTION_DOT = .453E-5
MEAN_MOTION_DDOT = 0

CCSDS_OMM_VERS = 2.0
CREATION_DATE  = 
ORIGINATOR     = 

OBJECT_NAME    = COSMOS 2278
OBJECT_ID      = 1994-023A
CENTER_NAME    = EARTH
REF_FRAME      = TEME
TIME_SYSTEM    = UTC
MEAN_ELEMENT_THEORY = SGP/SGP4

EPOCH          = 2025-12-10T11:38:12.927840
MEAN_MOTION    = 14.14350875
ECCENTRICITY   = .00084349
INCLINATION    = 71.0544
RA_OF_ASC_NODE = 1.7288
ARG_OF_PERICENTER = 183.3840
MEAN_ANOMALY   = 176.7227

EPHEMERIS_TYPE = 0
CLASSIFICATION_TYPE = U
NORAD_CAT_ID   = 23087
ELEMENT_SET_NO = 999
REV_AT_EPOCH   = 63219
BSTAR          = -.52233199E-4
MEAN_MOTION_DOT = -.147E-5
MEAN_MOTION_DDOT = 0

CCSDS_OMM_VERS = 2.0
CREATION_DATE  = 
ORIGINATOR     = 

OBJECT_NAME    = SL-16 R/B
OBJECT_ID      = 1994-023B
CENTER_NAME    = EARTH
REF_FRAME      = TEME
TIME_SYSTEM    = UTC
MEAN_ELEMENT_THEORY = SGP/SGP4

EPOCH          = 2025-12-10T12:01:57.124704
MEAN_MOTION    = 14.15002492
ECCENTRICITY   = .00012442
INCLINATION    = 71.0010
RA_OF_ASC_NODE = 258.1861
ARG_OF_PERICENTER = 35.2030
MEAN_ANOMALY   = 324.9175

EPHEMERIS_TYPE = 0
CLASSIFICATION_TYPE = U
NORAD_CAT_ID   = 23088
ELEMENT_SET_NO = 999
REV_AT_EPOCH   = 63347
BSTAR          = .96492457E-4
MEAN_MOTION_DOT = .139E-5
MEAN_MOTION_DDOT = 0

CCSDS_OMM_VERS = 2.0
CREATION_DATE  = 
ORIGINATOR     = 

OBJECT_NAME    = SL-16 R/B
OBJECT_ID      = 1994-074B
CENTER_NAME    = EARTH
REF_FRAME      = TEME
TIME_SYSTEM    = UTC
MEAN_ELEMENT_THEORY = SGP/SGP4

EPOCH          = 2025-12-10T12:43:36.562656
MEAN_MOTION    = 14.79285799
ECCENTRICITY   = .00074059
INCLINATION    = 97.7204
RA_OF_ASC_NODE = 13.9226
ARG_OF_PERICENTER = 142.0134
MEAN_ANOMALY   = 25.3406

EPHEMERIS_TYPE = 0
CLASSIFICATION_TYPE = U
NORAD_CAT_ID   = 23343
ELEMENT_SET_NO = 999
REV_AT_EPOCH   = 67406
BSTAR          = .11509585E-3
MEAN_MOTION_DOT = .807E-5
MEAN_MOTION_DDOT = 0

CCSDS_OMM_VERS = 2.0
CREATION_DATE  = 
ORIGINATOR     = 

OBJECT_NAME    = SL-16 R/B
OBJECT_ID      = 1994-077B
CENTER_NAME    = EARTH
REF_FRAME      = TEME
TIME_SYSTEM    = UTC
MEAN_ELEMENT_THEORY = SGP/SGP4

EPOCH          = 2025-12-10T07:20:16.715328
MEAN_MOTION    = 14.15548154
ECCENTRICITY   = .0004612
INCLINATION    = 70.9811
RA_OF_ASC_NODE = 180.5343
ARG_OF_PERICENTER = 285.9502
MEAN_ANOMALY   = 74.1112

EPHEMERIS_TYPE = 0
CLASSIFICATION_TYPE = U
NORAD_CAT_ID   = 23405
ELEMENT_SET_NO = 999
REV_AT_EPOCH   = 60358
BSTAR          = .16872E-3
MEAN_MOTION_DOT = .282E-5
MEAN_MOTION_DDOT = 0

CCSDS_OMM_VERS = 2.0
CREATION_DATE  = 
ORIGINATOR     = 

OBJECT_NAME    = ARIANE 40+ R/B
OBJECT_ID      = 1995-021B
CENTER_NAME    = EARTH
REF_FRAME      = TEME
TIME_SYSTEM    = UTC
MEAN_ELEMENT_THEORY = SGP/SGP4

EPOCH          = 2025-12-10T16:06:21.166848
MEAN_MOTION    = 14.39693164
ECCENTRICITY   = .00075672
INCLINATION    = 98.4653
RA_OF_ASC_NODE = 52.2848
ARG_OF_PERICENTER = 55.4934
MEAN_ANOMALY   = 106.5246

EPHEMERIS_TYPE = 0
CLASSIFICATION_TYPE = U
NORAD_CAT_ID   = 23561
ELEMENT_SET_NO = 999
REV_AT_EPOCH   = 60643
BSTAR          = .18391058E-3
MEAN_MOTION_DOT = .532E-5
MEAN_MOTION_DDOT = 0

CCSDS_OMM_VERS = 2.0
CREATION_DATE  = 
ORIGINATOR     = 

OBJECT_NAME    = SL-16 R/B
OBJECT_ID      = 1995-058B
CENTER_NAME    = EARTH
REF_FRAME      = TEME
TIME_SYSTEM    = UTC
MEAN_ELEMENT_THEORY = SGP/SGP4

EPOCH          = 2025-12-10T10:47:30.059808
MEAN_MOTION    = 14.15483341
ECCENTRICITY   = .00149594
INCLINATION    = 71.0226
RA_OF_ASC_NODE = 7.6126
ARG_OF_PERICENTER = 258.2043
MEAN_ANOMALY   = 101.7402

EPHEMERIS_TYPE = 0
CLASSIFICATION_TYPE = U
NORAD_CAT_ID   = 23705
ELEMENT_SET_NO = 999
REV_AT_EPOCH   = 55522
BSTAR          = .107274E-3
MEAN_MOTION_DOT = .162E-5
MEAN_MOTION_DDOT = 0

CCSDS_OMM_VERS = 2.0
CREATION_DATE  = 
ORIGINATOR     = 

OBJECT_NAME    = SL-16 R/B
OBJECT_ID      = 1996-051B
CENTER_NAME    = EARTH
REF_FRAME      = TEME
TIME_SYSTEM    = UTC
MEAN_ELEMENT_THEORY = SGP/SGP4

EPOCH          = 2025-12-10T08:44:05.715456
MEAN_MOTION    = 14.12396288
ECCENTRICITY   = .00193573
INCLINATION    = 70.7595
RA_OF_ASC_NODE = 4.3130
ARG_OF_PERICENTER = 264.2296
MEAN_ANOMALY   = 95.6617

EPHEMERIS_TYPE = 0
CLASSIFICATION_TYPE = U
NORAD_CAT_ID   = 24298
ELEMENT_SET_NO = 999
REV_AT_EPOCH   = 50903
BSTAR          = .43169885E-4
MEAN_MOTION_DOT = .3E-6
MEAN_MOTION_DDOT = 0

CCSDS_OMM_VERS = 2.0
CREATION_DATE  = 
ORIGINATOR     = 

OBJECT_NAME    = ORBVIEW 2 (SEASTAR)
OBJECT_ID      = 1997-037A
CENTER_NAME    = EARTH
REF_FRAME      = TEME
TIME_SYSTEM    = UTC
MEAN_ELEMENT_THEORY = SGP/SGP4

EPOCH          = 2025-12-10T09:44:29.154336
MEAN_MOTION    = 14.35414500
ECCENTRICITY   = .00017615
INCLINATION    = 98.8456
RA_OF_ASC_NODE = 141.4216
ARG_OF_PERICENTER = 349.6577
MEAN_ANOMALY   = 10.4571

EPHEMERIS_TYPE = 0
CLASSIFICATION_TYPE = U
NORAD_CAT_ID   = 24883
ELEMENT_SET_NO = 999
REV_AT_EPOCH   = 49566
BSTAR          = .2068037E-3
MEAN_MOTION_DOT = .547E-5
MEAN_MOTION_DDOT = 0

